[{"OBJECT_NAME":"RUNNER-1 (TYVAK-1005)","OBJECT_ID":"2023-084X","EPOCH":"2026-03-09T23:04:09.569568","MEAN_MOTION":15.35579757,"ECCENTRICITY":0.0007303,"INCLINATION":97.6067,"RA_OF_ASC_NODE":207.5453,"ARG_OF_PERICENTER":311.3836,"MEAN_ANOMALY":48.6778,"EPHEMERIS_TYPE":0,"CLASSIFICATION_TYPE":"U","NORAD_CAT_ID":56953,"ELEMENT_SET_NO":999,"REV_AT_EPOCH":15236,"BSTAR":0.00038328234,"MEAN_MOTION_DOT":0.0001319,"MEAN_MOTION_DDOT":0},{"OBJECT_NAME":"SL-3 DEB","OBJECT_ID":"1983-075F","EPOCH":"2026-03-09T19:42:52.235424","MEAN_MOTION":15.39643406,"ECCENTRICITY":0.00197846,"INCLINATION":97.8048,"RA_OF_ASC_NODE":24.2009,"ARG_OF_PERICENTER":43.7659,"MEAN_ANOMALY":316.5149,"EPHEMERIS_TYPE":0,"CLASSIFICATION_TYPE":"U","NORAD_CAT_ID":14928,"ELEMENT_SET_NO":999,"REV_AT_EPOCH":30350,"BSTAR":0.0003796907,"MEAN_MOTION_DOT":0.00014993,"MEAN_MOTION_DDOT":0}]
